{"fetched_at":"2026-07-06T18:35:34.868Z","source":"https://celestrak.org/NORAD/elements/gp.php?NAME=GLOBAL&FORMAT=JSON","constellation":"blacksky-gen3","records":[{"OBJECT_NAME":"GLOBAL-31","OBJECT_ID":"2025-033B","EPOCH":"2026-07-06T03:46:36.049152","CLASSIFICATION_TYPE":"U","MEAN_MOTION":15.38191461,"ECCENTRICITY":0.00110022,"INCLINATION":58.997,"RA_OF_ASC_NODE":239.4843,"ARG_OF_PERICENTER":52.8143,"MEAN_ANOMALY":307.3935,"EPHEMERIS_TYPE":0,"NORAD_CAT_ID":63027,"ELEMENT_SET_NO":999,"REV_AT_EPOCH":7724,"BSTAR":0.00031229661,"MEAN_MOTION_DOT":0.0001156,"MEAN_MOTION_DDOT":0},{"OBJECT_NAME":"GLOBAL-32","OBJECT_ID":"2025-118B","EPOCH":"2026-07-05T23:19:34.455648","CLASSIFICATION_TYPE":"U","MEAN_MOTION":15.3911509,"ECCENTRICITY":0.00157334,"INCLINATION":58.9934,"RA_OF_ASC_NODE":56.4986,"ARG_OF_PERICENTER":55.4131,"MEAN_ANOMALY":304.8427,"EPHEMERIS_TYPE":0,"NORAD_CAT_ID":64231,"ELEMENT_SET_NO":999,"REV_AT_EPOCH":6113,"BSTAR":0.00041831489,"MEAN_MOTION_DOT":0.00016131,"MEAN_MOTION_DDOT":0},{"OBJECT_NAME":"GLOBAL-33","OBJECT_ID":"2025-267A","EPOCH":"2026-07-05T08:47:32.989056","CLASSIFICATION_TYPE":"U","MEAN_MOTION":15.37153689,"ECCENTRICITY":0.0009008,"INCLINATION":42.02,"RA_OF_ASC_NODE":310.5002,"ARG_OF_PERICENTER":14.0239,"MEAN_ANOMALY":346.0849,"EPHEMERIS_TYPE":0,"NORAD_CAT_ID":66554,"ELEMENT_SET_NO":999,"REV_AT_EPOCH":3484,"BSTAR":0.00054898,"MEAN_MOTION_DOT":0.00020236,"MEAN_MOTION_DDOT":0},{"OBJECT_NAME":"GLOBAL-34","OBJECT_ID":"2026-043A","EPOCH":"2026-07-05T23:42:44.432064","CLASSIFICATION_TYPE":"U","MEAN_MOTION":15.32981142,"ECCENTRICITY":0.00019135,"INCLINATION":42.0211,"RA_OF_ASC_NODE":112.0425,"ARG_OF_PERICENTER":24.6163,"MEAN_ANOMALY":335.4765,"EPHEMERIS_TYPE":0,"NORAD_CAT_ID":68098,"ELEMENT_SET_NO":999,"REV_AT_EPOCH":1871,"BSTAR":0.00036638392,"MEAN_MOTION_DOT":0.00011692,"MEAN_MOTION_DDOT":0}]}
